{
  "type": "FeatureCollection",
  "name": "Zonas_Urbanas_Bahia_Quintero_Multicolor",
  "features": [
    {
      "type": "Feature",
      "properties": {
        "id": "urban_quintero",
        "name": "Zona Urbana Quintero",
        "city": "Quintero",
        "color": "#38bdf8",
        "fillColor": "#0284c7"
      },
      "geometry": {
        "type": "Polygon",
        "coordinates": [
          [
            [
              -71.54738,
              -32.81097
            ],
            [
              -71.52877,
              -32.83204
            ],
            [
              -71.52495,
              -32.82811
            ],
            [
              -71.52352,
              -32.8266
            ],
            [
              -71.52329,
              -32.82607
            ],
            [
              -71.51772,
              -32.78357
            ],
            [
              -71.52595,
              -32.7697
            ],
            [
              -71.5276,
              -32.76732
            ],
            [
              -71.53426,
              -32.76318
            ],
            [
              -71.535,
              -32.76315
            ],
            [
              -71.53513,
              -32.76317
            ],
            [
              -71.53749,
              -32.76524
            ],
            [
              -71.53777,
              -32.7656
            ],
            [
              -71.53954,
              -32.76882
            ],
            [
              -71.54773,
              -32.79543
            ],
            [
              -71.54738,
              -32.81097
            ]
          ]
        ]
      }
    },
    {
      "type": "Feature",
      "properties": {
        "id": "urban_loncura",
        "name": "Localidad Urbana de Loncura",
        "city": "Loncura",
        "color": "#f59e0b",
        "fillColor": "#d97706"
      },
      "geometry": {
        "type": "Polygon",
        "coordinates": [
          [
            [
              -71.51628,
              -32.79962
            ],
            [
              -71.50328,
              -32.80118
            ],
            [
              -71.50222,
              -32.80121
            ],
            [
              -71.49725,
              -32.80066
            ],
            [
              -71.49113,
              -32.79392
            ],
            [
              -71.49105,
              -32.79379
            ],
            [
              -71.48888,
              -32.78712
            ],
            [
              -71.49112,
              -32.78259
            ],
            [
              -71.49572,
              -32.77928
            ],
            [
              -71.49971,
              -32.77749
            ],
            [
              -71.50924,
              -32.78081
            ],
            [
              -71.51423,
              -32.78314
            ],
            [
              -71.51443,
              -32.78388
            ],
            [
              -71.51607,
              -32.79348
            ],
            [
              -71.51628,
              -32.79962
            ]
          ]
        ]
      }
    },
    {
      "type": "Feature",
      "properties": {
        "id": "urban_ventanas",
        "name": "Zona Urbana Las Ventanas",
        "city": "Las Ventanas",
        "color": "#a855f7",
        "fillColor": "#9333ea"
      },
      "geometry": {
        "type": "Polygon",
        "coordinates": [
          [
            [
              -71.49528,
              -32.74212
            ],
            [
              -71.48365,
              -32.74832
            ],
            [
              -71.47901,
              -32.7493
            ],
            [
              -71.47769,
              -32.74944
            ],
            [
              -71.47713,
              -32.74946
            ],
            [
              -71.47639,
              -32.74946
            ],
            [
              -71.4761,
              -32.74114
            ],
            [
              -71.47927,
              -32.73696
            ],
            [
              -71.4926,
              -32.73677
            ],
            [
              -71.49395,
              -32.73791
            ],
            [
              -71.49403,
              -32.73805
            ],
            [
              -71.49457,
              -32.73956
            ],
            [
              -71.49528,
              -32.74212
            ]
          ]
        ]
      }
    },
    {
      "type": "Feature",
      "properties": {
        "id": "urban_chocota",
        "name": "Localidad de La Chocota",
        "city": "La Chocota",
        "color": "#ec4899",
        "fillColor": "#db2777"
      },
      "geometry": {
        "type": "Polygon",
        "coordinates": [
          [
            [
              -71.49693,
              -32.73368
            ],
            [
              -71.49608,
              -32.73795
            ],
            [
              -71.47899,
              -32.7399
            ],
            [
              -71.47879,
              -32.73989
            ],
            [
              -71.47609,
              -32.73964
            ],
            [
              -71.47424,
              -32.739
            ],
            [
              -71.47347,
              -32.73701
            ],
            [
              -71.47349,
              -32.724
            ],
            [
              -71.47456,
              -32.7195
            ],
            [
              -71.47612,
              -32.71875
            ],
            [
              -71.487,
              -32.71819
            ],
            [
              -71.4955,
              -32.71944
            ],
            [
              -71.49693,
              -32.73368
            ]
          ]
        ]
      }
    },
    {
      "type": "Feature",
      "properties": {
        "id": "urban_greda",
        "name": "Sector Urbano-Rural La Greda",
        "city": "La Greda",
        "color": "#ef4444",
        "fillColor": "#dc2626"
      },
      "geometry": {
        "type": "Polygon",
        "coordinates": [
          [
            [
              -71.47976,
              -32.74347
            ],
            [
              -71.47942,
              -32.74929
            ],
            [
              -71.47881,
              -32.75059
            ],
            [
              -71.47456,
              -32.75285
            ],
            [
              -71.47428,
              -32.75297
            ],
            [
              -71.47417,
              -32.75296
            ],
            [
              -71.47392,
              -32.75284
            ],
            [
              -71.45905,
              -32.74202
            ],
            [
              -71.45629,
              -32.73837
            ],
            [
              -71.45644,
              -32.73735
            ],
            [
              -71.47141,
              -32.73602
            ],
            [
              -71.47561,
              -32.73632
            ],
            [
              -71.47901,
              -32.73773
            ],
            [
              -71.47976,
              -32.74347
            ]
          ]
        ]
      }
    },
    {
      "type": "Feature",
      "properties": {
        "id": "urban_salinas_campiche",
        "name": "Sector Las Salinas y Campiche",
        "city": "Las Salinas / Campiche",
        "color": "#06b6d4",
        "fillColor": "#0891b2"
      },
      "geometry": {
        "type": "Polygon",
        "coordinates": [
          [
            [
              -71.46687,
              -32.72728
            ],
            [
              -71.46247,
              -32.7438
            ],
            [
              -71.45853,
              -32.74656
            ],
            [
              -71.45279,
              -32.74583
            ],
            [
              -71.44095,
              -32.7358
            ],
            [
              -71.43624,
              -32.72631
            ],
            [
              -71.44208,
              -32.72376
            ],
            [
              -71.44604,
              -32.72322
            ],
            [
              -71.45055,
              -32.72322
            ],
            [
              -71.46687,
              -32.72728
            ]
          ]
        ]
      }
    },
    {
      "type": "Feature",
      "properties": {
        "id": "urban_horcon",
        "name": "Zona Urbana Caleta Horcón",
        "city": "Horcón",
        "color": "#8b5cf6",
        "fillColor": "#7c3aed"
      },
      "geometry": {
        "type": "Polygon",
        "coordinates": [
          [
            [
              -71.50998,
              -32.71613
            ],
            [
              -71.50958,
              -32.71645
            ],
            [
              -71.49595,
              -32.71931
            ],
            [
              -71.48204,
              -32.71858
            ],
            [
              -71.48193,
              -32.71849
            ],
            [
              -71.48198,
              -32.7157
            ],
            [
              -71.48625,
              -32.70912
            ],
            [
              -71.48723,
              -32.70796
            ],
            [
              -71.48849,
              -32.7068
            ],
            [
              -71.48901,
              -32.70647
            ],
            [
              -71.4948,
              -32.70663
            ],
            [
              -71.50998,
              -32.71613
            ]
          ]
        ]
      }
    },
    {
      "type": "Feature",
      "properties": {
        "id": "urban_puchuncavi",
        "name": "Zona Urbana Puchuncaví Centro",
        "city": "Puchuncaví Centro",
        "color": "#10b981",
        "fillColor": "#059669"
      },
      "geometry": {
        "type": "Polygon",
        "coordinates": [
          [
            [
              -71.42679,
              -32.72767
            ],
            [
              -71.41884,
              -32.73752
            ],
            [
              -71.41819,
              -32.73799
            ],
            [
              -71.41744,
              -32.7381
            ],
            [
              -71.4023,
              -32.73342
            ],
            [
              -71.4017,
              -32.7323
            ],
            [
              -71.40082,
              -32.71719
            ],
            [
              -71.4073,
              -32.71597
            ],
            [
              -71.40958,
              -32.71583
            ],
            [
              -71.41549,
              -32.71762
            ],
            [
              -71.42676,
              -32.72649
            ],
            [
              -71.42679,
              -32.72767
            ]
          ]
        ]
      }
    },
    {
      "type": "Feature",
      "properties": {
        "id": "urban_los_tomes",
        "name": "Localidad Rural Los Tomes",
        "city": "Los Tomes",
        "color": "#84cc16",
        "fillColor": "#65a30d"
      },
      "geometry": {
        "type": "Polygon",
        "coordinates": [
          [
            [
              -71.45153,
              -32.72656
            ],
            [
              -71.44586,
              -32.72663
            ],
            [
              -71.44172,
              -32.72415
            ],
            [
              -71.44523,
              -32.71415
            ],
            [
              -71.4509,
              -32.71723
            ],
            [
              -71.45096,
              -32.71737
            ],
            [
              -71.45194,
              -32.71965
            ],
            [
              -71.4522,
              -32.72376
            ],
            [
              -71.45201,
              -32.72455
            ],
            [
              -71.45185,
              -32.72521
            ],
            [
              -71.45153,
              -32.72656
            ]
          ]
        ]
      }
    }
  ]
}